{"fetched_at":"2026-07-22T07:10:03.774Z","source":"https://celestrak.org/NORAD/elements/gp.php?NAME=SENTINEL&FORMAT=JSON","constellation":"sentinel-6","records":[{"OBJECT_NAME":"SENTINEL-6A","OBJECT_ID":"2020-086A","EPOCH":"2026-07-21T14:16:51.888000","CLASSIFICATION_TYPE":"U","MEAN_MOTION":12.80930247,"ECCENTRICITY":0.00077809,"INCLINATION":66.041,"RA_OF_ASC_NODE":63.5873,"ARG_OF_PERICENTER":269.6351,"MEAN_ANOMALY":90.3772,"EPHEMERIS_TYPE":0,"NORAD_CAT_ID":46984,"ELEMENT_SET_NO":999,"REV_AT_EPOCH":26473,"BSTAR":-0.000031220533,"MEAN_MOTION_DOT":-6.8e-7,"MEAN_MOTION_DDOT":0},{"OBJECT_NAME":"SENTINEL-6B","OBJECT_ID":"2025-264A","EPOCH":"2026-07-21T14:17:21.945696","CLASSIFICATION_TYPE":"U","MEAN_MOTION":12.8093029,"ECCENTRICITY":0.00078358,"INCLINATION":66.041,"RA_OF_ASC_NODE":63.7128,"ARG_OF_PERICENTER":268.489,"MEAN_ANOMALY":91.5227,"EPHEMERIS_TYPE":0,"NORAD_CAT_ID":66514,"ELEMENT_SET_NO":999,"REV_AT_EPOCH":3157,"BSTAR":-0.000014921963,"MEAN_MOTION_DOT":-6.4e-7,"MEAN_MOTION_DDOT":0}]}
