{"epoch":1784710044,"count":18256,"objects":[{"id":"46984","name":"S6 MICHAEL FREILICH","type":"PAYLOAD","l1":"1 46984U 20086A   26202.59504500 -.00000068  00000-0 -31221-4 0  9996","l2":"2 46984  66.0410  63.5873 0007781 269.6351  90.3772 12.80930247264733"},{"id":"66514","name":"SENTINEL-6B","type":"PAYLOAD","l1":"1 66514U 25264A   26202.59539289 -.00000064  00000-0 -14922-4 0  9997","l2":"2 66514  66.0410  63.7128 0007836 268.4890  91.5227 12.80930290 31575"}]}